{"type": "FeatureCollection", "features": [ {"type": "Feature", "properties": {"norad_id": 65304, "name": "DRAGON CRS-33", "group": "stations", "lat": 23.185637319364435, "lon": -92.27589965973685, "alt_km": 416.1483240674297, "timestamp": "2025-12-19T18:58:40.359091+00:00", "meta": {"OBJECT_NAME": "DRAGON CRS-33", "OBJECT_ID": "2025-186A", "EPOCH": "2025-12-19T01:18:34.104096", "MEAN_MOTION": 15.49660414, "ECCENTRICITY": 0.00031768, "INCLINATION": 51.6316, "RA_OF_ASC_NODE": 111.2076, "ARG_OF_PERICENTER": 269.7772, "MEAN_ANOMALY": 90.2853, "EPHEMERIS_TYPE": 0, "CLASSIFICATION_TYPE": "U", "NORAD_CAT_ID": 65304, "ELEMENT_SET_NO": 999, "REV_AT_EPOCH": 11, "BSTAR": 0.00012867135, "MEAN_MOTION_DOT": 6.809e-05, "MEAN_MOTION_DDOT": 0}, "tle": {"line1": "1 65304U 25186A   25353.05456139  .00006809  00000+0  12867-3 0  9990", "line2": "2 65304  51.6316 111.2076 0003176 269.7772  90.2853 15.49660414   116"}}, "geometry": {"type": "Point", "coordinates": [-92.27589965973685, 23.185637319364435]}}, {"type": "Feature", "properties": {"norad_id": 65586, "name": "PROGRESS-MS 32", "group": "stations", "lat": 23.185636890352544, "lon": -92.2758992326431, "alt_km": 416.148324118014, "timestamp": "2025-12-19T18:58:40.359100+00:00", "meta": {"OBJECT_NAME": "PROGRESS-MS 32", "OBJECT_ID": "2025-204A", "EPOCH": "2025-12-19T01:18:34.104096", "MEAN_MOTION": 15.49660414, "ECCENTRICITY": 0.00031768, "INCLINATION": 51.6316, "RA_OF_ASC_NODE": 111.2076, "ARG_OF_PERICENTER": 269.7772, "MEAN_ANOMALY": 90.2853, "EPHEMERIS_TYPE": 0, "CLASSIFICATION_TYPE": "U", "NORAD_CAT_ID": 65586, "ELEMENT_SET_NO": 999, "REV_AT_EPOCH": 27, "BSTAR": 0.00012867135, "MEAN_MOTION_DOT": 6.809e-05, "MEAN_MOTION_DDOT": 0}, "tle": {"line1": "1 65586U 25204A   25353.05456139  .00006809  00000+0  12867-3 0  9993", "line2": "2 65586  51.6316 111.2076 0003176 269.7772  90.2853 15.49660414   275"}}, "geometry": {"type": "Point", "coordinates": [-92.2758992326431, 23.185636890352544]}}, {"type": "Feature", "properties": {"norad_id": 65616, "name": "CYGNUS NG-23", "group": "stations", "lat": 23.185636413671503, "lon": -92.27589875809333, "alt_km": 416.1483241742244, "timestamp": "2025-12-19T18:58:40.359110+00:00", "meta": {"OBJECT_NAME": "CYGNUS NG-23", "OBJECT_ID": "2025-208A", "EPOCH": "2025-12-19T01:18:34.104096", "MEAN_MOTION": 15.49660414, "ECCENTRICITY": 0.00031768, "INCLINATION": 51.6316, "RA_OF_ASC_NODE": 111.2076, "ARG_OF_PERICENTER": 269.7772, "MEAN_ANOMALY": 90.2853, "EPHEMERIS_TYPE": 0, "CLASSIFICATION_TYPE": "U", "NORAD_CAT_ID": 65616, "ELEMENT_SET_NO": 999, "REV_AT_EPOCH": 22, "BSTAR": 0.00012867135, "MEAN_MOTION_DOT": 6.809e-05, "MEAN_MOTION_DDOT": 0}, "tle": {"line1": "1 65616U 25208A   25353.05456139  .00006809  00000+0  12867-3 0  9991", "line2": "2 65616  51.6316 111.2076 0003176 269.7772  90.2853 15.49660414   224"}}, "geometry": {"type": "Point", "coordinates": [-92.27589875809333, 23.185636413671503]}}, {"type": "Feature", "properties": {"norad_id": 65729, "name": "DRAGONFLY", "group": "stations", "lat": 4.260391662462612, "lon": 102.97550346033766, "alt_km": 343.6221140787293, "timestamp": "2025-12-19T18:58:40.359123+00:00", "meta": {"OBJECT_NAME": "DRAGONFLY", "OBJECT_ID": "1998-067XH", "EPOCH": "2025-12-18T14:00:17.390304", "MEAN_MOTION": 15.73865471, "ECCENTRICITY": 0.0007166, "INCLINATION": 51.6249, "RA_OF_ASC_NODE": 105.7955, "ARG_OF_PERICENTER": 314.6867, "MEAN_ANOMALY": 45.3548, "EPHEMERIS_TYPE": 0, "CLASSIFICATION_TYPE": "U", "NORAD_CAT_ID": 65729, "ELEMENT_SET_NO": 999, "REV_AT_EPOCH": 1408, "BSTAR": 0.001129306, "MEAN_MOTION_DOT": 0.00166206, "MEAN_MOTION_DDOT": 0}, "tle": {"line1": "1 65729U 98067XH  25352.58353461  .00166206  00000+0  11293-2 0  9999", "line2": "2 65729  51.6249 105.7955 0007166 314.6867  45.3548 15.73865471 14084"}}, "geometry": {"type": "Point", "coordinates": [102.97550346033766, 4.260391662462612]}}, {"type": "Feature", "properties": {"norad_id": 65731, "name": "1998-067XK", "group": "stations", "lat": -29.89002666595765, "lon": -51.48776245998249, "alt_km": 369.7862406676577, "timestamp": "2025-12-19T18:58:40.359133+00:00", "meta": {"OBJECT_NAME": "1998-067XK", "OBJECT_ID": "1998-067XK", "EPOCH": "2025-12-18T14:29:38.955840", "MEAN_MOTION": 15.66848038, "ECCENTRICITY": 0.0004791, "INCLINATION": 51.6292, "RA_OF_ASC_NODE": 107.4546, "ARG_OF_PERICENTER": 283.3796, "MEAN_ANOMALY": 76.6665, "EPHEMERIS_TYPE": 0, "CLASSIFICATION_TYPE": "U", "NORAD_CAT_ID": 65731, "ELEMENT_SET_NO": 999, "REV_AT_EPOCH": 1406, "BSTAR": 0.00083587979, "MEAN_MOTION_DOT": 0.00090673, "MEAN_MOTION_DDOT": 0}, "tle": {"line1": "1 65731U 98067XK  25352.60392310  .00090673  00000+0  83588-3 0  9992", "line2": "2 65731  51.6292 107.4546 0004791 283.3796  76.6665 15.66848038 14061"}}, "geometry": {"type": "Point", "coordinates": [-51.48776245998249, -29.89002666595765]}}, {"type": "Feature", "properties": {"norad_id": 65732, "name": "RSP-03", "group": "stations", "lat": -51.600624018164744, "lon": 11.69759484765725, "alt_km": 359.03714114959894, "timestamp": "2025-12-19T18:58:40.359144+00:00", "meta": {"OBJECT_NAME": "RSP-03", "OBJECT_ID": "1998-067XL", "EPOCH": "2025-12-19T07:08:16.956672", "MEAN_MOTION": 15.70252106, "ECCENTRICITY": 0.00056592, "INCLINATION": 51.6265, "RA_OF_ASC_NODE": 103.0728, "ARG_OF_PERICENTER": 294.2748, "MEAN_ANOMALY": 65.7658, "EPHEMERIS_TYPE": 0, "CLASSIFICATION_TYPE": "U", "NORAD_CAT_ID": 65732, "ELEMENT_SET_NO": 999, "REV_AT_EPOCH": 1419, "BSTAR": 0.00086015321, "MEAN_MOTION_DOT": 0.00107626, "MEAN_MOTION_DDOT": 0}, "tle": {"line1": "1 65732U 98067XL  25353.29741848  .00107626  00000+0  86015-3 0  9998", "line2": "2 65732  51.6265 103.0728 0005659 294.2748  65.7658 15.70252106 14193"}}, "geometry": {"type": "Point", "coordinates": [11.69759484765725, -51.600624018164744]}}, {"type": "Feature", "properties": {"norad_id": 65733, "name": "GHS-01", "group": "stations", "lat": 1.9280275131423803, "lon": 100.38307247220446, "alt_km": 332.9034413897989, "timestamp": "2025-12-19T18:58:40.359154+00:00", "meta": {"OBJECT_NAME": "GHS-01", "OBJECT_ID": "1998-067XM", "EPOCH": "2025-12-18T21:41:04.642944", "MEAN_MOTION": 15.77485683, "ECCENTRICITY": 0.00079897, "INCLINATION": 51.6277, "RA_OF_ASC_NODE": 103.4385, "ARG_OF_PERICENTER": 320.4925, "MEAN_ANOMALY": 39.5492, "EPHEMERIS_TYPE": 0, "CLASSIFICATION_TYPE": "U", "NORAD_CAT_ID": 65733, "ELEMENT_SET_NO": 999, "REV_AT_EPOCH": 1415, "BSTAR": 0.001190379, "MEAN_MOTION_DOT": 0.00206465, "MEAN_MOTION_DDOT": 0}, "tle": {"line1": "1 65733U 98067XM  25352.90352596  .00206465  00000+0  11904-2 0  9999", "line2": "2 65733  51.6277 103.4385 0007989 320.4925  39.5492 15.77485683 14153"}}, "geometry": {"type": "Point", "coordinates": [100.38307247220446, 1.9280275131423803]}}, {"type": "Feature", "properties": {"norad_id": 65941, "name": "YOTSUBA-KULOVER", "group": "stations", "lat": 3.4298199350733323, "lon": -78.20953464646495, "alt_km": 387.8669391903413, "timestamp": "2025-12-19T18:58:40.359164+00:00", "meta": {"OBJECT_NAME": "YOTSUBA-KULOVER", "OBJECT_ID": "1998-067XN", "EPOCH": "2025-12-19T07:28:08.604480", "MEAN_MOTION": 15.60314479, "ECCENTRICITY": 0.00017577, "INCLINATION": 51.6289, "RA_OF_ASC_NODE": 106.9268, "ARG_OF_PERICENTER": 319.807, "MEAN_ANOMALY": 40.2793, "EPHEMERIS_TYPE": 0, "CLASSIFICATION_TYPE": "U", "NORAD_CAT_ID": 65941, "ELEMENT_SET_NO": 999, "REV_AT_EPOCH": 1088, "BSTAR": 0.00063692878, "MEAN_MOTION_DOT": 0.00052969, "MEAN_MOTION_DDOT": 0}, "tle": {"line1": "1 65941U 98067XN  25353.31121070  .00052969  00000+0  63693-3 0  9998", "line2": "2 65941  51.6289 106.9268 0001757 319.8070  40.2793 15.60314479 10880"}}, "geometry": {"type": "Point", "coordinates": [-78.20953464646495, 3.4298199350733323]}}, {"type": "Feature", "properties": {"norad_id": 65942, "name": "BOTAN", "group": "stations", "lat": -41.63019832320169, "lon": -31.59983398823539, "alt_km": 378.52643938549227, "timestamp": "2025-12-19T18:58:40.359174+00:00", "meta": {"OBJECT_NAME": "BOTAN", "OBJECT_ID": "1998-067XP", "EPOCH": "2025-12-19T07:13:55.696512", "MEAN_MOTION": 15.64217081, "ECCENTRICITY": 0.0002892, "INCLINATION": 51.6281, "RA_OF_ASC_NODE": 106.1105, "ARG_OF_PERICENTER": 295.3483, "MEAN_ANOMALY": 64.7212, "EPHEMERIS_TYPE": 0, "CLASSIFICATION_TYPE": "U", "NORAD_CAT_ID": 65942, "ELEMENT_SET_NO": 999, "REV_AT_EPOCH": 1089, "BSTAR": 0.00087501983, "MEAN_MOTION_DOT": 0.00085341, "MEAN_MOTION_DDOT": 0}, "tle": {"line1": "1 65942U 98067XP  25353.30133908  .00085341  00000+0  87502-3 0  9996", "line2": "2 65942  51.6281 106.1105 0002892 295.3483  64.7212 15.64217081 10895"}}, "geometry": {"type": "Point", "coordinates": [-31.59983398823539, -41.63019832320169]}}, {"type": "Feature", "properties": {"norad_id": 65943, "name": "E-KAGAKU-1", "group": "stations", "lat": 3.8441127303803415, "lon": -78.53574372268712, "alt_km": 386.5904520041622, "timestamp": "2025-12-19T18:58:40.359184+00:00", "meta": {"OBJECT_NAME": "E-KAGAKU-1", "OBJECT_ID": "1998-067XQ", "EPOCH": "2025-12-18T08:24:49.666176", "MEAN_MOTION": 15.60193795, "ECCENTRICITY": 0.00013451, "INCLINATION": 51.6302, "RA_OF_ASC_NODE": 111.7666, "ARG_OF_PERICENTER": 249.8249, "MEAN_ANOMALY": 110.26, "EPHEMERIS_TYPE": 0, "CLASSIFICATION_TYPE": "U", "NORAD_CAT_ID": 65943, "ELEMENT_SET_NO": 999, "REV_AT_EPOCH": 1073, "BSTAR": 0.00084619625, "MEAN_MOTION_DOT": 0.00070368, "MEAN_MOTION_DDOT": 0}, "tle": {"line1": "1 65943U 98067XQ  25352.35057484  .00070368  00000+0  84620-3 0  9996", "line2": "2 65943  51.6302 111.7666 0001345 249.8249 110.2600 15.60193795 10732"}}, "geometry": {"type": "Point", "coordinates": [-78.53574372268712, 3.8441127303803415]}}]}